*******************************************************************************
 Revised: January 26, 2022             Saturn                               699
 
 PHYSICAL DATA:
  Mass x10^26 (kg)      = 5.6834          Density (g/cm^3)       =  0.687+-.001
  Equat. radius (1 bar) = 60268+-4 km     Polar radius (km)      = 54364+-10
  Vol. Mean Radius (km) = 58232+-6        Flattening             =  0.09796
  Geometric Albedo      = 0.47            Rocky core mass (Mc/M) =  0.1027
  Sid. rot. period (III)= 10h 39m 22.4s   Sid. rot. rate (rad/s) =  0.000163785 
  Mean solar day, hrs   =~10.656         
  GM (km^3/s^2)         = 37931206.234    GM 1-sigma (km^3/s^2)  = +- 98
  Equ. grav, ge (m/s^2) = 10.44           Pol. grav, gp (m/s^2)  = 12.14+-0.01
  Vis. magnitude V(1,0) = -8.88          
  Vis. mag. (opposition)= +0.67           Obliquity to orbit     = 26.73 deg
  Sidereal orbit period = 29.447498 yr    Sidereal orbit period  = 10755.698 d
  Mean daily motion     = 0.0334979 deg/d Mean orbit velocity    =  9.68 km/s
  Atmos. temp. (1 bar)  = 134+-4 K        Escape speed, km/s    =  35.5          
  Aroche(ice)/Rp        =  2.71           Hill's sphere rad. Rp  = 1100
                                 Perihelion  Aphelion    Mean
  Solar Constant (W/m^2)         16.8        13.6        15.1
  Maximum Planetary IR (W/m^2)    4.7         4.5         4.6
  Minimum Planetary IR (W/m^2)    4.7         4.5         4.6
*******************************************************************************


*******************************************************************************
Ephemeris / WWW_USER Thu Nov 13 09:29:11 2025 Pasadena, USA      / Horizons
*******************************************************************************
Target body name: Saturn (699)                    {source: sat441l}
Center body name: Sun (10)                        {source: DE441}
Center-site name: BODY CENTER
*******************************************************************************
Start time      : A.D. 2000-Dec-30 00:00:00.0000 TDB
Stop  time      : A.D. 2004-Jul-01 00:00:00.0000 TDB
Step-size       : 1440 minutes
*******************************************************************************
Center geodetic : 0.0, 0.0, 0.0                   {E-lon(deg),Lat(deg),Alt(km)}
Center cylindric: 0.0, 0.0, 0.0                   {E-lon(deg),Dxy(km),Dz(km)}
Center radii    : 695700.0, 695700.0, 695700.0 km {Equator_a, b, pole_c}
Output units    : AU-D
Calendar mode   : Mixed Julian/Gregorian
Output type     : GEOMETRIC cartesian states
Output format   : 2 (position and velocity)
Reference frame : Ecliptic of J2000.0
*******************************************************************************
            JDTDB,            Calendar Date (TDB),                      X,                      Y,                      Z,                     VX,                     VY,                     VZ,
**************************************************************************************************************************************************************************************************
$$SOE
2452643.500000000, A.D. 2003-Jan-04 00:00:00.0000,  5.980772516819591E-01,  9.013376880901806E+00, -1.805989996175570E-01, -5.869689760583011E-03,  3.539273122339372E-04,  2.271936251196959E-04,
2452644.500000000, A.D. 2003-Jan-05 00:00:00.0000,  5.922073992560145E-01,  9.013729106973575E+00, -1.803718245261209E-01, -5.870031493149056E-03,  3.505249981794050E-04,  2.271578100659058E-04,
2452645.500000000, A.D. 2003-Jan-06 00:00:00.0000,  5.863371582023111E-01,  9.014077904104632E+00, -1.801446669819078E-01, -5.870448086200851E-03,  3.470559245665371E-04,  2.271641453666467E-04,
2452646.500000000, A.D. 2003-Jan-07 00:00:00.0000,  5.804664938682976E-01,  9.014423222847185E+00, -1.799174977278927E-01, -5.870908046323786E-03,  3.435800611598231E-04,  2.271775909195178E-04,
2452647.500000000, A.D. 2003-Jan-08 00:00:00.0000,  5.745953037816851E-01,  9.014765015579885E+00, -1.796902824826680E-01, -5.871470602497146E-03,  3.399732272550242E-04,  2.272695987673532E-04,
2452648.500000000, A.D. 2003-Jan-09 00:00:00.0000,  5.687235846450582E-01,  9.015103128633056E+00, -1.794629408483364E-01, -5.871957584104002E-03,  3.362453074740611E-04,  2.274163854607467E-04,
2452649.500000000, A.D. 2003-Jan-10 00:00:00.0000,  5.628514041662414E-01,  9.015437480175303E+00, -1.792354375582735E-01, -5.872386747150016E-03,  3.324434653725465E-04,  2.275959576246835E-04,
2452650.500000000, A.D. 2003-Jan-11 00:00:00.0000,  5.569788384375709E-01,  9.015768006907072E+00, -1.790077475505193E-01, -5.872739661952157E-03,  3.285988321704881E-04,  2.277893166127284E-04,
2452651.500000000, A.D. 2003-Jan-12 00:00:00.0000,  5.511059687698947E-01,  9.016094654611541E+00, -1.787798507234975E-01, -5.872973373388861E-03,  3.246992617460330E-04,  2.280003283049540E-04,
2452652.500000000, A.D. 2003-Jan-13 00:00:00.0000,  5.452329150346181E-01,  9.016417417592544E+00, -1.785517558384569E-01, -5.873125919285636E-03,  3.208208867941156E-04,  2.281917568617809E-04,
2452653.500000000, A.D. 2003-Jan-14 00:00:00.0000,  5.393597675234553E-01,  9.016736284289676E+00, -1.783234654559181E-01, -5.873128927258589E-03,  3.169216056923959E-04,  2.283802950992938E-04,
2452654.500000000, A.D. 2003-Jan-15 00:00:00.0000,  5.334866973792463E-01,  9.017051322016856E+00, -1.780950312973827E-01, -5.873015217368135E-03,  3.131795546789361E-04,  2.284752356108576E-04,
2452655.500000000, A.D. 2003-Jan-16 00:00:00.0000,  5.276137342629845E-01,  9.017362678201039E+00, -1.778665323716622E-01, -5.872912358909625E-03,  3.095544350621095E-04,  2.285114856360207E-04,
2452656.500000000, A.D. 2003-Jan-17 00:00:00.0000,  5.217408471142994E-01,  9.017670461137286E+00, -1.776380214926223E-01, -5.872867022084921E-03,  3.060173801568913E-04,  2.285080586981268E-04,
2452657.500000000, A.D. 2003-Jan-18 00:00:00.0000,  5.158679928464260E-01,  9.017974741550256E+00, -1.774095301300177E-01, -5.872854702792323E-03,  3.025631819685680E-04,  2.284655363760157E-04,
2452658.500000000, A.D. 2003-Jan-19 00:00:00.0000,  5.099950904754670E-01,  9.018275605702222E+00, -1.771810953135607E-01, -5.872967193042556E-03,  2.991610563799722E-04,  2.284081893895968E-04,
2452659.500000000, A.D. 2003-Jan-20 00:00:00.0000,  5.041220504729297E-01,  9.018573067854600E+00, -1.769527150542539E-01, -5.873125909082301E-03,  2.957833390558329E-04,  2.283429498155193E-04,
2452660.500000000, A.D. 2003-Jan-21 00:00:00.0000,  4.982487683545641E-01,  9.018867179980701E+00, -1.767244064160932E-01, -5.873465116117599E-03,  2.924229379850852E-04,  2.282865715657723E-04,
2452661.500000000, A.D. 2003-Jan-22 00:00:00.0000,  4.923750969561216E-01,  9.019157879069226E+00, -1.764961216608716E-01, -5.873887542022524E-03,  2.889611749744272E-04,  2.282909962417732E-04,
2452662.500000000, A.D. 2003-Jan-23 00:00:00.0000,  4.865009887114690E-01,  9.019445067810581E+00, -1.762678059067430E-01, -5.874325312004449E-03,  2.854052480191682E-04,  2.283459821711006E-04,
2452663.500000000, A.D. 2003-Jan-24 00:00:00.0000,  4.806264463012427E-01,  9.019728677680654E+00, -1.760394239112803E-01, -5.874771178039005E-03,  2.818083549885913E-04,  2.284220748490989E-04,
2452664.500000000, A.D. 2003-Jan-25 00:00:00.0000,  4.747514345102881E-01,  9.020008640855206E+00, -1.758109376243668E-01, -5.875237381769209E-03,  2.780934967922465E-04,  2.285618756622533E-04,
2452665.500000000, A.D. 2003-Jan-26 00:00:00.0000,  4.688760003767130E-01,  9.020284853596596E+00, -1.755822975715509E-01, -5.875637361068042E-03,  2.743251086951520E-04,  2.287222660060472E-04,
2452666.500000000, A.D. 2003-Jan-27 00:00:00.0000,  4.630001747037992E-01,  9.020557244116965E+00, -1.753534698260939E-01, -5.875986018245146E-03,  2.704350953464566E-04,  2.289413113997316E-04,
2452667.500000000, A.D. 2003-Jan-28 00:00:00.0000,  4.571240906634437E-01,  9.020825713432771E+00, -1.751244160786383E-01, -5.876156635785112E-03,  2.665069306229171E-04,  2.291618751272552E-04,
2452668.500000000, A.D. 2003-Jan-29 00:00:00.0000,  4.512479036119427E-01,  9.021090273805227E+00, -1.748951581360826E-01, -5.876199162386343E-03,  2.626240340154317E-04,  2.293468804323219E-04,
2452669.500000000, A.D. 2003-Jan-30 00:00:00.0000,  4.453717082541906E-01,  9.021350989700631E+00, -1.746657387651349E-01, -5.876190453957771E-03,  2.588094847448257E-04,  2.294910713621617E-04,
2452670.500000000, A.D. 2003-Jan-31 00:00:00.0000,  4.394955633003264E-01,  9.021607896516635E+00, -1.744361813515278E-01, -5.876073125124724E-03,  2.550267988193250E-04,  2.296093754498187E-04,
2452671.500000000, A.D. 2003-Feb-01 00:00:00.0000,  4.336195608020857E-01,  9.021861098870438E+00, -1.742065490170308E-01, -5.875940157613765E-03,  2.513901988159530E-04,  2.296499725806442E-04,
2452672.500000000, A.D. 2003-Feb-02 00:00:00.0000,  4.277436850495880E-01,  9.022110701218622E+00, -1.739768938770158E-01, -5.875807809237973E-03,  2.478357167699301E-04,  2.296488684437311E-04,
2452673.500000000, A.D. 2003-Feb-03 00:00:00.0000,  4.218679178911711E-01,  9.022356821887911E+00, -1.737472754686613E-01, -5.875753724542680E-03,  2.444222801024185E-04,  2.295822699731517E-04,
2452674.500000000, A.D. 2003-Feb-04 00:00:00.0000,  4.159921302395864E-01,  9.022599555869855E+00, -1.735177296629005E-01, -5.875841920959583E-03,  2.410509289379142E-04,  2.295084805900589E-04,
2452675.500000000, A.D. 2003-Feb-05 00:00:00.0000,  4.101161857566668E-01,  9.022838910400834E+00, -1.732882467815252E-01, -5.876052628518301E-03,  2.376422638978484E-04,  2.294663693804332E-04,
2452676.500000000, A.D. 2003-Feb-06 00:00:00.0000,  4.042400264529207E-01,  9.023074842687434E+00, -1.730587983386154E-01, -5.876283826259219E-03,  2.342346338235703E-04,  2.294255444774946E-04,
2452677.500000000, A.D. 2003-Feb-07 00:00:00.0000,  3.983635651674463E-01,  9.023307367276340E+00, -1.728293840463083E-01, -5.876654506525920E-03,  2.307955442214465E-04,  2.294146744975015E-04,
